JASON-2 (OSTM)          
1 33105U 08032A   19297.34896352 -.00000024  00000-0  15148-3 0  9992
2 33105  66.0373 115.7444 0007562 265.4683 164.4704 12.87622574531200
INTELSAT 25 (IS-25)     
1 33153U 08034A   19297.28729837 -.00000235  00000-0  00000+0 0  9994
2 33153   0.0100 205.8743 0002384  33.9742 224.5014  1.00272727 41294
BADR-6                  
1 33154U 08034B   19297.11924287  .00000134  00000-0  00000+0 0  9990
2 33154   0.0532  39.3226 0001388 155.4646 266.4127  1.00273805 41407
ECHOSTAR 11             
1 33207U 08035A   19296.88660622 -.00000067  00000-0  00000-0 0  9990
2 33207   0.0113 182.0432 0002620  33.4932  25.6715  1.00271053 26896
SUPERBIRD-C2            
1 33274U 08038A   19296.94771656 -.00000261  00000-0  00000+0 0  9999
2 33274   0.0142 166.1445 0001817  70.8733 280.2012  1.00273080 41034
AMC-21                  
1 33275U 08038B   19297.38013547  .00000024  00000-0  00000+0 0  9993
2 33275   0.0438  58.5676 0002692 166.7521 179.1480  1.00271661 41123
INMARSAT 4-F3           
1 33278U 08039A   19297.41200675 -.00000149  00000-0  00000+0 0  9990
2 33278   3.0853  10.7800 0002865 204.3124 227.7854  1.00270774 40925
RAPIDEYE 2              
1 33312U 08040A   19297.40547618 -.00000130  00000-0 -85805-5 0  9994
2 33312  97.7296   2.4673 0010524  43.3682 316.8363 14.86879891602520
RAPIDEYE 5              
1 33313U 08040B   19297.42965767  .00000169  00000-0  24943-4 0  9991
2 33313  97.7339   1.4470 0022111 309.6978  50.2283 14.86850502602476
RAPIDEYE 1              
1 33314U 08040C   19297.41814721  .00000187  00000-0  26857-4 0  9990
2 33314  97.7408   2.3581 0021002  79.6714 280.6886 14.86898265602518
RAPIDEYE 3              
1 33315U 08040D   19297.31815863  .00000091  00000-0  16191-4 0  9992
2 33315  97.7344   1.2293 0014488   8.3409 351.8044 14.86886225602460
RAPIDEYE 4              
1 33316U 08040E   19297.30622636 -.00000226  00000-0 -19205-4 0  9997
2 33316  97.7390   1.1467 0015397 325.1248  34.8960 14.86884612602457
HUANJING 1A (HJ-1A)     
1 33320U 08041A   19297.43718792  .00000075  00000-0  17690-4 0  9992
2 33320  97.8235 352.1206 0026543 124.4765 235.8955 14.77049416599615
HUANJING 1B (HJ-1B)     
1 33321U 08041B   19297.45563805  .00000076  00000-0  17802-4 0  9994
2 33321  97.8314 354.1543 0035330 143.7495 216.6119 14.77168878599611
GEOEYE 1                
1 33331U 08042A   19297.42260903 -.00000032  00000-0  29718-5 0  9999
2 33331  98.1298   9.9916 0010151  83.7692 276.4674 14.64359433594847
NIMIQ 4                 
1 33373U 08044A   19296.86994045 -.00000231  00000-0  00000-0 0  9994
2 33373   0.0243 270.8405 0002306 301.6967  50.6506  1.00270156 40625
GALAXY 19 (G-19)        
1 33376U 08045A   19297.38469615 -.00000151  00000-0  00000+0 0  9996
2 33376   0.0130 258.7101 0002888 311.1575 224.1444  1.00271886 40492
THEOS                   
1 33396U 08049A   19297.22098010  .00000169  00000-0  10000-3 0  9995
2 33396  98.7693   1.8930 0001203 120.5074 329.8204 14.20009281573396
SJ-6E                   
1 33408U 08053A   19297.44531176  .00000582  00000-0  59755-4 0  9993
2 33408  97.7387 271.5796 0017018 253.9405 105.9918 14.94073732599065
SJ-6F                   
1 33409U 08053B   19297.44377889  .00000638  00000-0  63667-4 0  9992
2 33409  97.7221 273.4071 0014878 215.2414 144.7816 14.94922596599364
COSMO-SKYMED 3          
1 33412U 08054A   19297.26269578 -.00000232  00000-0 -22589-4 0  9992
2 33412  97.8915 118.8545 0001169  91.9485 268.1869 14.82153696594901
VENESAT-1               
1 33414U 08055A   19297.34760427 -.00000249  00000-0  00000+0 0  9999
2 33414   0.0221 273.9680 0003208 335.2176 190.4170  1.00272307 40207
SHIYAN 3 (SY-3)         
1 33433U 08056A   19297.44420032  .00000003  00000-0  18660-4 0  9990
2 33433  98.6905 293.6895 0014709  55.0097 305.2466 14.29739510572207
CHUANGXIN 1-02 (CX-1-02)
1 33434U 08056B   19297.24195245 -.00000023  00000-0  84327-5 0  9991
2 33434  98.6947 293.1832 0015415  54.6825 305.5797 14.29446168572089
ASTRA 1M                
1 33436U 08057A   19297.31103170  .00000109  00000-0  00000+0 0  9992
2 33436   0.0311 128.1859 0004431  51.1922 344.2748  1.00275774 40135
YAOGAN 4                
1 33446U 08061A   19297.36903122  .00000097  00000-0  20593-4 0  9998
2 33446  97.6918 258.4208 0016987  33.9853 326.2443 14.76981077586837
CIEL-2                  
1 33453U 08063A   19297.16954134  .00000047  00000-0  00000+0 0  9996
2 33453   0.0372 108.2164 0002959 110.8960 105.3863  1.00272302 39795
EUTELSAT HOT BIRD 13C   
1 33459U 08065A   19297.16617848  .00000076  00000-0  00000+0 0  9994
2 33459   0.0482   7.2278 0003487 174.7690 283.1386  1.00269420 39908
EUTELSAT 48D            
1 33460U 08065B   19296.86686178  .00000113  00000-0  00000-0 0  9997
2 33460   0.0763  60.3518 0004012 155.8519 175.9581  1.00269257 39626
FENGYUN 2E              
1 33463U 08066A   19296.53467755 -.00000210  00000-0  00000+0 0  9991
2 33463   3.8511  69.0185 0003998 266.0798 335.7696  1.00274175 39733
GOSAT (IBUKI)           
1 33492U 09002A   19297.18673785  .00000066  00000-0  19964-4 0  9990
2 33492  98.0459  47.1754 0001617  98.0188 262.1200 14.67560304575810
STARS (KUKAI)           
1 33498U 09002G   19296.87802655  .00000189  00000-0  33084-4 0  9996
2 33498  98.2920 150.0889 0011999 117.4810 242.7621 14.79037790578383
KKS-1 (KISEKI)          
1 33499U 09002H   19296.89812988  .00000090  00000-0  21295-4 0  9991
2 33499  98.3398 139.6144 0009576 154.6094 205.5586 14.75471597577554
NOAA 19                 
1 33591U 09005A   19297.48808243  .00000036  00000-0  44995-4 0  9994
2 33591  99.1893 291.7587 0014394  23.9578 336.2260 14.12380710551949
EXPRESS-AM44            
1 33595U 09007A   19297.21424756 -.00000100  00000-0  00000+0 0  9991
2 33595   0.0107 301.1743 0000709 336.3709 180.9397  1.00272109 39215
NSS-9                   
1 33749U 09008A   19296.76942949  .00000061  00000-0  00000-0 0  9997
2 33749   0.0173 102.0777 0001937 117.5861 272.2936  1.00271126 39184
EUTELSAT 33E            
1 33750U 09008B   19296.86803719  .00000145  00000-0  00000-0 0  9994
2 33750   0.0583  31.2674 0003996 184.5306 161.7924  1.00272476 39093
SPIRALE A               
1 33751U 09008C   19296.84265928  .00000047  00000-0  17176-3 0  9993
2 33751   2.0767  71.9668 5394568 254.5351  42.2306  4.58717151150377
SPIRALE B               
1 33752U 09008D   19296.54464830  .00000692  00000-0  15122-3 0  9999
2 33752   1.9656 279.8145 6912277 197.4116 115.2548  2.75053908 98190
TELSTAR 11N             
1 34111U 09009A   19297.28729837 -.00000262  00000-0  00000+0 0  9992
2 34111   0.0215 233.4288 0001952 330.3693 254.4799  1.00267695 39079
NAVSTAR 63 (USA 203)    
1 34661U 09014A   19297.00294326 -.00000005  00000-0  00000+0 0  9993
2 34661  55.7625 307.9913 0103625  52.4897 334.4573  2.00566665 77599
EUTELSAT 10A            
1 34710U 09016A   19297.30902528  .00000057  00000-0  00000+0 0  9999
2 34710   0.0689  20.4387 0005114 188.1072 305.1353  1.00272087 38628
WGS F2 (USA 204)        
1 34713U 09017A   19296.88850653  .00000037  00000-0  00000-0 0  9995
2 34713   0.0174 227.5664 0000334 140.0978  44.3920  1.00268838 21262
RISAT-2                 
1 34807U 09019A   19297.32253119  .00003235  00000-0  89040-4 0  9993
2 34807  41.2138 266.4254 0004110 117.5802  26.8848 15.38706647590289
YAOGAN 6                
1 34839U 09021A   19297.14631680  .00000471  00000-0  20344-4 0  9995
2 34839  97.0483 313.9584 0029079 143.7971 216.5245 15.26682304583606
SES-7 (PROTOSTAR 2)     
1 34941U 09027A   19296.89801525 -.00000356  00000-0  00000-0 0  9999
2 34941   0.0802  93.6635 0002128 143.6044 226.3138  1.00271963 38296
MERIDIAN 2              
1 35008U 09029A   19296.13709229  .00000192  00000-0  10000-3 0  9992
2 35008  63.2036 253.2195 7234420 249.4733  24.1954  2.24562674 85320
MEASAT-3A               
1 35362U 09032A   19296.80396512 -.00000252  00000-0  00000+0 0  9993
2 35362   0.0329 221.7788 0003363   8.9840 182.0996  1.00269194 37887
GOES 14                 
1 35491U 09033A   19297.47120010 -.00000106  00000-0  00000+0 0  9997
2 35491   0.2655 279.4193 0012716 302.5902 236.0452  1.00271761 37811
SIRIUS FM-5             
1 35493U 09034A   19297.24536020 -.00000212  00000-0  00000+0 0  9995
2 35493   0.0151 278.1034 0000472 112.4101   4.0532  1.00270155 37635
TERRESTAR-1             
1 35496U 09035A   19297.36652649 -.00000066  00000-0  00000+0 0  9995
2 35496   2.4968   8.9756 0002807 206.8681 197.5983  1.00272288 37812
COSMOS 2451             
1 35498U 09036A   19296.76373596  .00000026  00000-0  12236-3 0  9995
2 35498  82.4892 159.1248 0007735  82.5347 277.6605 12.40820082466528
COSMOS 2453             
1 35500U 09036C   19296.79127780  .00000038  00000-0  20824-3 0  9999
2 35500  82.4884 156.4253 0007944  49.2800 310.8968 12.41461838466775
DEIMOS-1                
1 35681U 09041A   19297.29553153 -.00000064  00000-0 -27349-5 0  9990
2 35681  97.8415 174.7400 0002810  91.0577 269.0926 14.71803363549505
DUBAISAT-1              
1 35682U 09041B   19297.40395245  .00000216  00000-0  44844-4 0  9995
2 35682  97.7277 123.8972 0010713 289.4525  70.5520 14.68751976548329
UK-DMC 2                
1 35683U 09041C   19297.27959606 -.00000007  00000-0  63511-5 0  9990
2 35683  97.7212 147.4033 0001666  99.2988 260.8387 14.71116316549307
APRIZESAT 4             
1 35684U 09041D   19296.88215574  .00000050  00000-0  14306-4 0  9990
2 35684  98.2427 264.2025 0046383 214.3952 145.4254 14.79230478552014
NANOSAT 1B              
1 35685U 09041E   19297.28267373  .00000092  00000-0  17910-4 0  9990
2 35685  98.2844 313.5717 0059432 153.1814 207.2493 14.84233775553696
